start=new Date('2023-03-25T00:00:00.000Z').valueOf();
sats=[{"CENTER_NAME":"EARTH","CLASSIFICATION_TYPE":"U","EPHEMERIS_TYPE":"0","MEAN_MOTION":"15.90791668","TLE_LINE1":"1 55924U 23037L   23083.91668981 -.01051755  32779-3 -33351-2 0  9998","ELEMENT_SET_NO":"999","MEAN_ELEMENT_THEORY":"SGP4","OBJECT_ID":"2023-037L","OBJECT_TYPE":"PAYLOAD","ECCENTRICITY":"0.00159550","EPOCH":"2023-03-24T22:00:01.999584","COUNTRY_CODE":"US","RCS_SIZE":null,"SEMIMAJOR_AXIS":"6678.203","MEAN_MOTION_DDOT":"0.0003277900000","REV_AT_EPOCH":"130","NORAD_CAT_ID":"55924","REF_FRAME":"TEME","RA_OF_ASC_NODE":"161.4457","APOAPSIS":"310.723","FILE":"3870109","MEAN_ANOMALY":"104.0694","TLE_LINE2":"2 55924  69.9997 161.4457 0015955 177.8528 104.0694 15.90791668  1307","MEAN_MOTION_DOT":"-0.01051755","PERIAPSIS":"289.413","PERIOD":"90.521","TIME_SYSTEM":"UTC","SITE":"AFWTR","LAUNCH_DATE":"2023-03-17","BSTAR":"-0.00333510000000","GP_ID":"228826944","OBJECT_NAME":"STARLINK-5849","INCLINATION":"69.9997","DECAY_DATE":null,"ARG_OF_PERICENTER":"177.8528"},{"EPOCH":"2023-03-24T22:00:01.999584","ECCENTRICITY":"0.00165320","OBJECT_TYPE":"PAYLOAD","OBJECT_ID":"2023-037M","RCS_SIZE":null,"SEMIMAJOR_AXIS":"6678.501","COUNTRY_CODE":"US","REF_FRAME":"TEME","NORAD_CAT_ID":"55925","REV_AT_EPOCH":"130","MEAN_MOTION_DDOT":"0.0003119100000","FILE":"3870109","RA_OF_ASC_NODE":"161.4475","APOAPSIS":"311.407","CENTER_NAME":"EARTH","CLASSIFICATION_TYPE":"U","MEAN_MOTION":"15.90685322","EPHEMERIS_TYPE":"0","ELEMENT_SET_NO":"999","MEAN_ELEMENT_THEORY":"SGP4","TLE_LINE1":"1 55925U 23037M   23083.91668981 -.01024465  31191-3 -32628-2 0  9990","LAUNCH_DATE":"2023-03-17","SITE":"AFWTR","GP_ID":"228826993","INCLINATION":"70.0001","OBJECT_NAME":"STARLINK-5922","BSTAR":"-0.00326280000000","DECAY_DATE":null,"ARG_OF_PERICENTER":"178.0154","PERIAPSIS":"289.325","MEAN_MOTION_DOT":"-0.01024465","TLE_LINE2":"2 55925  70.0001 161.4475 0016532 178.0154 102.0163 15.90685322  1305","MEAN_ANOMALY":"102.0163","PERIOD":"90.527","TIME_SYSTEM":"UTC"},{"MEAN_MOTION":"15.90765817","EPHEMERIS_TYPE":"0","TLE_LINE1":"1 55926U 23037N   23083.91668981 -.01025090  31251-3 -32479-2 0  9997","MEAN_ELEMENT_THEORY":"SGP4","ELEMENT_SET_NO":"999","CENTER_NAME":"EARTH","CLASSIFICATION_TYPE":"U","MEAN_MOTION_DDOT":"0.0003125100000","REV_AT_EPOCH":"130","REF_FRAME":"TEME","NORAD_CAT_ID":"55926","APOAPSIS":"311.645","RA_OF_ASC_NODE":"161.4455","FILE":"3870109","OBJECT_TYPE":"PAYLOAD","OBJECT_ID":"2023-037N","EPOCH":"2023-03-24T22:00:01.999584","ECCENTRICITY":"0.00172260","COUNTRY_CODE":"US","SEMIMAJOR_AXIS":"6678.276","RCS_SIZE":null,"TIME_SYSTEM":"UTC","MEAN_ANOMALY":"105.2463","PERIAPSIS":"288.637","MEAN_MOTION_DOT":"-0.01025090","TLE_LINE2":"2 55926  70.0001 161.4455 0017226 176.4858 105.2463 15.90765817  1304","PERIOD":"90.522","ARG_OF_PERICENTER":"176.4858","DECAY_DATE":null,"LAUNCH_DATE":"2023-03-17","SITE":"AFWTR","BSTAR":"-0.00324790000000","GP_ID":"228827015","INCLINATION":"70.0001","OBJECT_NAME":"STARLINK-5921"},{"ARG_OF_PERICENTER":"177.2843","DECAY_DATE":null,"SITE":"AFWTR","LAUNCH_DATE":"2023-03-17","OBJECT_NAME":"STARLINK-5919","GP_ID":"228827053","INCLINATION":"70.0001","BSTAR":"-0.00325930000000","TIME_SYSTEM":"UTC","TLE_LINE2":"2 55927  70.0001 161.4473 0016906 177.2843 102.9476 15.90695695  1306","PERIAPSIS":"289.046","MEAN_MOTION_DOT":"-0.01024496","MEAN_ANOMALY":"102.9476","PERIOD":"90.526","NORAD_CAT_ID":"55927","REF_FRAME":"TEME","MEAN_MOTION_DDOT":"0.0003119600000","REV_AT_EPOCH":"130","FILE":"3870109","RA_OF_ASC_NODE":"161.4473","APOAPSIS":"311.628","ECCENTRICITY":"0.00169060","EPOCH":"2023-03-24T22:00:01.999584","OBJECT_ID":"2023-037P","OBJECT_TYPE":"PAYLOAD","SEMIMAJOR_AXIS":"6678.472","RCS_SIZE":null,"COUNTRY_CODE":"US","MEAN_MOTION":"15.90695695","EPHEMERIS_TYPE":"0","MEAN_ELEMENT_THEORY":"SGP4","ELEMENT_SET_NO":"999","TLE_LINE1":"1 55927U 23037P   23083.91668981 -.01024496  31196-3 -32593-2 0  9992","CENTER_NAME":"EARTH","CLASSIFICATION_TYPE":"U"},{"ELEMENT_SET_NO":"999","MEAN_ELEMENT_THEORY":"SGP4","TLE_LINE1":"1 55928U 23037Q   23083.91668981 -.01051295  32732-3 -33468-2 0  9999","EPHEMERIS_TYPE":"0","MEAN_MOTION":"15.90730094","CLASSIFICATION_TYPE":"U","CENTER_NAME":"EARTH","FILE":"3870109","RA_OF_ASC_NODE":"161.4470","APOAPSIS":"310.527","NORAD_CAT_ID":"55928","REF_FRAME":"TEME","MEAN_MOTION_DDOT":"0.0003273200000","REV_AT_EPOCH":"130","SEMIMAJOR_AXIS":"6678.376","RCS_SIZE":null,"COUNTRY_CODE":"US","ECCENTRICITY":"0.00154030","EPOCH":"2023-03-24T22:00:01.999584","OBJECT_ID":"2023-037Q","OBJECT_TYPE":"PAYLOAD","TIME_SYSTEM":"UTC","PERIOD":"90.524","TLE_LINE2":"2 55928  69.9998 161.4470 0015403 178.7371 101.9580 15.90730094  1307","MEAN_MOTION_DOT":"-0.01051295","PERIAPSIS":"289.954","MEAN_ANOMALY":"101.9580","ARG_OF_PERICENTER":"178.7371","DECAY_DATE":null,"OBJECT_NAME":"STARLINK-5930","GP_ID":"228827031","INCLINATION":"69.9998","BSTAR":"-0.00334680000000","SITE":"AFWTR","LAUNCH_DATE":"2023-03-17"},{"MEAN_MOTION":"15.90720399","EPHEMERIS_TYPE":"0","MEAN_ELEMENT_THEORY":"SGP4","ELEMENT_SET_NO":"999","TLE_LINE1":"1 55929U 23037R   23083.91668981 -.01052151  32779-3 -33515-2 0  9996","CENTER_NAME":"EARTH","CLASSIFICATION_TYPE":"U","NORAD_CAT_ID":"55929","REF_FRAME":"TEME","REV_AT_EPOCH":"130","MEAN_MOTION_DDOT":"0.0003277900000","FILE":"3870109","APOAPSIS":"310.513","RA_OF_ASC_NODE":"161.4473","ECCENTRICITY":"0.00153410","EPOCH":"2023-03-24T22:00:01.999584","OBJECT_ID":"2023-037R","OBJECT_TYPE":"PAYLOAD","SEMIMAJOR_AXIS":"6678.403","RCS_SIZE":null,"COUNTRY_CODE":"US","TIME_SYSTEM":"UTC","TLE_LINE2":"2 55929  69.9998 161.4473 0015341 179.2255 101.2644 15.90720399  1300","PERIAPSIS":"290.022","MEAN_MOTION_DOT":"-0.01052151","MEAN_ANOMALY":"101.2644","PERIOD":"90.525","ARG_OF_PERICENTER":"179.2255","DECAY_DATE":null,"SITE":"AFWTR","LAUNCH_DATE":"2023-03-17","GP_ID":"228826907","INCLINATION":"69.9998","OBJECT_NAME":"STARLINK-5898","BSTAR":"-0.00335150000000"},{"DECAY_DATE":null,"ARG_OF_PERICENTER":"177.3552","BSTAR":"-0.00324940000000","GP_ID":"228826929","OBJECT_NAME":"STARLINK-5896","INCLINATION":"70.0000","LAUNCH_DATE":"2023-03-17","SITE":"AFWTR","TIME_SYSTEM":"UTC","PERIOD":"90.521","MEAN_ANOMALY":"104.7938","PERIAPSIS":"288.761","MEAN_MOTION_DOT":"-0.01026212","TLE_LINE2":"2 55930  70.0000 161.4448 0016952 177.3552 104.7938 15.90786725  1308","APOAPSIS":"311.403","RA_OF_ASC_NODE":"161.4448","FILE":"3870109","MEAN_MOTION_DDOT":"0.0003132100000","REV_AT_EPOCH":"130","REF_FRAME":"TEME","NORAD_CAT_ID":"55930","COUNTRY_CODE":"US","SEMIMAJOR_AXIS":"6678.217","RCS_SIZE":null,"OBJECT_TYPE":"PAYLOAD","OBJECT_ID":"2023-037S","EPOCH":"2023-03-24T22:00:01.999584","ECCENTRICITY":"0.00169520","TLE_LINE1":"1 55930U 23037S   23083.91668981 -.01026212  31321-3 -32494-2 0  9994","MEAN_ELEMENT_THEORY":"SGP4","ELEMENT_SET_NO":"999","MEAN_MOTION":"15.90786725","EPHEMERIS_TYPE":"0","CLASSIFICATION_TYPE":"U","CENTER_NAME":"EARTH"},{"MEAN_ANOMALY":"102.4163","TLE_LINE2":"2 55931  69.9998 161.4468 0015598 178.4912 102.4163 15.90740323  1300","PERIAPSIS":"289.795","MEAN_MOTION_DOT":"-0.01051600","PERIOD":"90.524","TIME_SYSTEM":"UTC","SITE":"AFWTR","LAUNCH_DATE":"2023-03-17","BSTAR":"-0.00334510000000","GP_ID":"228826967","INCLINATION":"69.9998","OBJECT_NAME":"STARLINK-5897","DECAY_DATE":null,"ARG_OF_PERICENTER":"178.4912","CENTER_NAME":"EARTH","CLASSIFICATION_TYPE":"U","EPHEMERIS_TYPE":"0","MEAN_MOTION":"15.90740323","TLE_LINE1":"1 55931U 23037T   23083.91668981 -.01051600  32753-3 -33451-2 0  9998","MEAN_ELEMENT_THEORY":"SGP4","ELEMENT_SET_NO":"999","OBJECT_ID":"2023-037T","OBJECT_TYPE":"PAYLOAD","ECCENTRICITY":"0.00155980","EPOCH":"2023-03-24T22:00:01.999584","COUNTRY_CODE":"US","RCS_SIZE":null,"SEMIMAJOR_AXIS":"6678.347","MEAN_MOTION_DDOT":"0.0003275300000","REV_AT_EPOCH":"130","NORAD_CAT_ID":"55931","REF_FRAME":"TEME","APOAPSIS":"310.629","RA_OF_ASC_NODE":"161.4468","FILE":"3870109"},{"RA_OF_ASC_NODE":"161.4370","APOAPSIS":"309.561","FILE":"3870109","MEAN_MOTION_DDOT":"0.0003314100000","REV_AT_EPOCH":"130","REF_FRAME":"TEME","NORAD_CAT_ID":"55932","COUNTRY_CODE":"US","SEMIMAJOR_AXIS":"6677.280","RCS_SIZE":null,"OBJECT_TYPE":"PAYLOAD","OBJECT_ID":"2023-037U","EPOCH":"2023-03-24T22:00:01.999584","ECCENTRICITY":"0.00156000","TLE_LINE1":"1 55932U 23037U   23083.91668981 -.01056154  33141-3 -32947-2 0  9999","MEAN_ELEMENT_THEORY":"SGP4","ELEMENT_SET_NO":"999","EPHEMERIS_TYPE":"0","MEAN_MOTION":"15.91121762","CLASSIFICATION_TYPE":"U","CENTER_NAME":"EARTH","ARG_OF_PERICENTER":"177.8072","DECAY_DATE":null,"BSTAR":"-0.00329470000000","GP_ID":"228826945","OBJECT_NAME":"STARLINK-5848","INCLINATION":"69.9997","LAUNCH_DATE":"2023-03-17","SITE":"AFWTR","TIME_SYSTEM":"UTC","PERIOD":"90.502","MEAN_ANOMALY":"111.1171","MEAN_MOTION_DOT":"-0.01056154","PERIAPSIS":"288.728","TLE_LINE2":"2 55932  69.9997 161.4370 0015600 177.8072 111.1171 15.91121762  1303"},{"EPOCH":"2023-03-24T22:00:01.999584","ECCENTRICITY":"0.00155070","OBJECT_TYPE":"PAYLOAD","OBJECT_ID":"2023-037V","SEMIMAJOR_AXIS":"6678.290","RCS_SIZE":null,"COUNTRY_CODE":"US","REF_FRAME":"TEME","NORAD_CAT_ID":"55933","REV_AT_EPOCH":"130","MEAN_MOTION_DDOT":"0.0003276600000","FILE":"3870109","RA_OF_ASC_NODE":"161.4463","APOAPSIS":"310.511","CENTER_NAME":"EARTH","CLASSIFICATION_TYPE":"U","EPHEMERIS_TYPE":"0","MEAN_MOTION":"15.90760736","ELEMENT_SET_NO":"999","MEAN_ELEMENT_THEORY":"SGP4","TLE_LINE1":"1 55933U 23037V   23083.91668981 -.01051710  32766-3 -33424-2 0  9996","LAUNCH_DATE":"2023-03-17","SITE":"AFWTR","INCLINATION":"69.9998","GP_ID":"228826994","OBJECT_NAME":"STARLINK-5852","BSTAR":"-0.00334240000000","ARG_OF_PERICENTER":"178.6506","DECAY_DATE":null,"MEAN_MOTION_DOT":"-0.01051710","PERIAPSIS":"289.799","TLE_LINE2":"2 55933  69.9998 161.4463 0015507 178.6506 102.6688 15.90760736  1302","MEAN_ANOMALY":"102.6688","PERIOD":"90.523","TIME_SYSTEM":"UTC"}];
